[{"OBJECT_NAME":"ONEWEB-0598","OBJECT_ID":"2023-004Q","EPOCH":"2026-03-30T21:06:52.159968","MEAN_MOTION":13.11417766,"ECCENTRICITY":0.0002474,"INCLINATION":87.8901,"RA_OF_ASC_NODE":36.6362,"ARG_OF_PERICENTER":73.442,"MEAN_ANOMALY":286.698,"EPHEMERIS_TYPE":0,"CLASSIFICATION_TYPE":"U","NORAD_CAT_ID":55154,"ELEMENT_SET_NO":999,"REV_AT_EPOCH":15563,"BSTAR":-0.0013064,"MEAN_MOTION_DOT":-4.5e-06,"MEAN_MOTION_DDOT":0.0},{"OBJECT_NAME":"ONEWEB-0599","OBJECT_ID":"2023-004R","EPOCH":"2026-03-30T19:27:20.903904","MEAN_MOTION":13.17649936,"ECCENTRICITY":0.0002034,"INCLINATION":87.918,"RA_OF_ASC_NODE":21.4296,"ARG_OF_PERICENTER":81.8183,"MEAN_ANOMALY":278.3179,"EPHEMERIS_TYPE":0,"CLASSIFICATION_TYPE":"U","NORAD_CAT_ID":55155,"ELEMENT_SET_NO":999,"REV_AT_EPOCH":15716,"BSTAR":-3.6086000000000007e-05,"MEAN_MOTION_DOT":-1e-08,"MEAN_MOTION_DDOT":0.0},{"OBJECT_NAME":"ONEWEB-0614","OBJECT_ID":"2023-004S","EPOCH":"2026-03-30T20:59:31.691904","MEAN_MOTION":13.11415481,"ECCENTRICITY":0.0001638,"INCLINATION":87.8897,"RA_OF_ASC_NODE":36.6452,"ARG_OF_PERICENTER":78.7554,"MEAN_ANOMALY":281.3758,"EPHEMERIS_TYPE":0,"CLASSIFICATION_TYPE":"U","NORAD_CAT_ID":55156,"ELEMENT_SET_NO":999,"REV_AT_EPOCH":15557,"BSTAR":-0.0016048000000000002,"MEAN_MOTION_DOT":-5.56e-06,"MEAN_MOTION_DDOT":0.0},{"OBJECT_NAME":"ONEWEB-0616","OBJECT_ID":"2023-004T","EPOCH":"2026-03-30T20:28:05.794176","MEAN_MOTION":13.17650271,"ECCENTRICITY":0.0002541,"INCLINATION":87.918,"RA_OF_ASC_NODE":21.4232,"ARG_OF_PERICENTER":96.7577,"MEAN_ANOMALY":263.3844,"EPHEMERIS_TYPE":0,"CLASSIFICATION_TYPE":"U","NORAD_CAT_ID":55157,"ELEMENT_SET_NO":999,"REV_AT_EPOCH":15738,"BSTAR":-9.0679e-05,"MEAN_MOTION_DOT":-2.2e-07,"MEAN_MOTION_DDOT":0.0},{"OBJECT_NAME":"ONEWEB-0617","OBJECT_ID":"2023-004U","EPOCH":"2026-03-30T20:42:27.463968","MEAN_MOTION":13.11414552,"ECCENTRICITY":0.000149,"INCLINATION":87.8907,"RA_OF_ASC_NODE":36.6334,"ARG_OF_PERICENTER":70.8422,"MEAN_ANOMALY":289.2867,"EPHEMERIS_TYPE":0,"CLASSIFICATION_TYPE":"U","NORAD_CAT_ID":55158,"ELEMENT_SET_NO":999,"REV_AT_EPOCH":15559,"BSTAR":-0.0006249200000000001,"MEAN_MOTION_DOT":-2.09e-06,"MEAN_MOTION_DDOT":0.0},{"OBJECT_NAME":"ONEWEB-0618","OBJECT_ID":"2023-004V","EPOCH":"2026-03-30T19:20:04.713504","MEAN_MOTION":15.1233035,"ECCENTRICITY":0.0011552,"INCLINATION":86.9118,"RA_OF_ASC_NODE":209.4145,"ARG_OF_PERICENTER":214.3931,"MEAN_ANOMALY":145.6562,"EPHEMERIS_TYPE":0,"CLASSIFICATION_TYPE":"U","NORAD_CAT_ID":55159,"ELEMENT_SET_NO":999,"REV_AT_EPOCH":17041,"BSTAR":0.00062061,"MEAN_MOTION_DOT":0.000108,"MEAN_MOTION_DDOT":0.0},{"OBJECT_NAME":"ONEWEB-0619","OBJECT_ID":"2023-004W","EPOCH":"2026-03-30T21:14:15.081792","MEAN_MOTION":13.17651622,"ECCENTRICITY":0.0001553,"INCLINATION":87.9192,"RA_OF_ASC_NODE":21.3912,"ARG_OF_PERICENTER":90.9997,"MEAN_ANOMALY":269.1313,"EPHEMERIS_TYPE":0,"CLASSIFICATION_TYPE":"U","NORAD_CAT_ID":55160,"ELEMENT_SET_NO":999,"REV_AT_EPOCH":15728,"BSTAR":-6.537600000000001e-06,"MEAN_MOTION_DOT":1e-07,"MEAN_MOTION_DDOT":0.0},{"OBJECT_NAME":"ONEWEB-0620","OBJECT_ID":"2023-004X","EPOCH":"2026-03-30T20:35:08.535552","MEAN_MOTION":13.11414705,"ECCENTRICITY":0.0001945,"INCLINATION":87.8898,"RA_OF_ASC_NODE":36.6482,"ARG_OF_PERICENTER":71.3283,"MEAN_ANOMALY":288.8056,"EPHEMERIS_TYPE":0,"CLASSIFICATION_TYPE":"U","NORAD_CAT_ID":55161,"ELEMENT_SET_NO":999,"REV_AT_EPOCH":15556,"BSTAR":-0.00034921,"MEAN_MOTION_DOT":-1.11e-06,"MEAN_MOTION_DDOT":0.0},{"OBJECT_NAME":"ONEWEB-0621","OBJECT_ID":"2023-004Y","EPOCH":"2026-03-30T21:14:10.252896","MEAN_MOTION":13.11416492,"ECCENTRICITY":0.0001634,"INCLINATION":87.891,"RA_OF_ASC_NODE":36.6247,"ARG_OF_PERICENTER":80.4293,"MEAN_ANOMALY":279.702,"EPHEMERIS_TYPE":0,"CLASSIFICATION_TYPE":"U","NORAD_CAT_ID":55162,"ELEMENT_SET_NO":999,"REV_AT_EPOCH":15554,"BSTAR":-0.0012488,"MEAN_MOTION_DOT":-4.3e-06,"MEAN_MOTION_DDOT":0.0},{"OBJECT_NAME":"ONEWEB-0622","OBJECT_ID":"2023-004Z","EPOCH":"2026-03-30T21:21:31.024224","MEAN_MOTION":13.11418114,"ECCENTRICITY":0.000145,"INCLINATION":87.8907,"RA_OF_ASC_NODE":36.6254,"ARG_OF_PERICENTER":57.2587,"MEAN_ANOMALY":302.8681,"EPHEMERIS_TYPE":0,"CLASSIFICATION_TYPE":"U","NORAD_CAT_ID":55163,"ELEMENT_SET_NO":999,"REV_AT_EPOCH":15553,"BSTAR":-0.00081426,"MEAN_MOTION_DOT":-2.76e-06,"MEAN_MOTION_DDOT":0.0},{"OBJECT_NAME":"ONEWEB-0623","OBJECT_ID":"2023-004AA","EPOCH":"2026-03-30T19:17:36.725856","MEAN_MOTION":13.17651407,"ECCENTRICITY":0.0001083,"INCLINATION":87.9181,"RA_OF_ASC_NODE":21.4469,"ARG_OF_PERICENTER":75.7442,"MEAN_ANOMALY":284.3809,"EPHEMERIS_TYPE":0,"CLASSIFICATION_TYPE":"U","NORAD_CAT_ID":55164,"ELEMENT_SET_NO":999,"REV_AT_EPOCH":15726,"BSTAR":2.5238e-05,"MEAN_MOTION_DOT":2.3e-07,"MEAN_MOTION_DDOT":0.0},{"OBJECT_NAME":"ONEWEB-0624","OBJECT_ID":"2023-004AB","EPOCH":"2026-03-30T18:37:04.517472","MEAN_MOTION":13.12923308,"ECCENTRICITY":0.0001561,"INCLINATION":87.9014,"RA_OF_ASC_NODE":6.1688,"ARG_OF_PERICENTER":79.0332,"MEAN_ANOMALY":281.0973,"EPHEMERIS_TYPE":0,"CLASSIFICATION_TYPE":"U","NORAD_CAT_ID":55165,"ELEMENT_SET_NO":999,"REV_AT_EPOCH":15778,"BSTAR":-0.00044180000000000006,"MEAN_MOTION_DOT":-1.47e-06,"MEAN_MOTION_DDOT":0.0},{"OBJECT_NAME":"ONEWEB-0625","OBJECT_ID":"2023-004AC","EPOCH":"2026-03-30T20:52:22.762560","MEAN_MOTION":13.17651319,"ECCENTRICITY":0.0001934,"INCLINATION":87.9179,"RA_OF_ASC_NODE":21.4276,"ARG_OF_PERICENTER":84.4972,"MEAN_ANOMALY":275.6381,"EPHEMERIS_TYPE":0,"CLASSIFICATION_TYPE":"U","NORAD_CAT_ID":55166,"ELEMENT_SET_NO":999,"REV_AT_EPOCH":15726,"BSTAR":-2.9803000000000002e-05,"MEAN_MOTION_DOT":1e-08,"MEAN_MOTION_DDOT":0.0},{"OBJECT_NAME":"ONEWEB-0626","OBJECT_ID":"2023-004AD","EPOCH":"2026-03-30T20:37:49.483200","MEAN_MOTION":13.17648806,"ECCENTRICITY":0.0002186,"INCLINATION":87.9179,"RA_OF_ASC_NODE":21.4297,"ARG_OF_PERICENTER":70.5373,"MEAN_ANOMALY":289.5995,"EPHEMERIS_TYPE":0,"CLASSIFICATION_TYPE":"U","NORAD_CAT_ID":55167,"ELEMENT_SET_NO":999,"REV_AT_EPOCH":15726,"BSTAR":-4.1932000000000004e-05,"MEAN_MOTION_DOT":-3e-08,"MEAN_MOTION_DDOT":0.0},{"OBJECT_NAME":"ONEWEB-0627","OBJECT_ID":"2023-004AE","EPOCH":"2026-03-30T20:20:46.830336","MEAN_MOTION":13.17650076,"ECCENTRICITY":0.0001311,"INCLINATION":87.9177,"RA_OF_ASC_NODE":21.4319,"ARG_OF_PERICENTER":76.7871,"MEAN_ANOMALY":283.3407,"EPHEMERIS_TYPE":0,"CLASSIFICATION_TYPE":"U","NORAD_CAT_ID":55168,"ELEMENT_SET_NO":999,"REV_AT_EPOCH":15726,"BSTAR":-0.00043723000000000004,"MEAN_MOTION_DOT":-1.57e-06,"MEAN_MOTION_DDOT":0.0},{"OBJECT_NAME":"ONEWEB-0628","OBJECT_ID":"2023-004AF","EPOCH":"2026-03-30T19:18:29.019456","MEAN_MOTION":13.12445106,"ECCENTRICITY":0.0001092,"INCLINATION":87.9018,"RA_OF_ASC_NODE":6.2156,"ARG_OF_PERICENTER":83.5397,"MEAN_ANOMALY":276.5855,"EPHEMERIS_TYPE":0,"CLASSIFICATION_TYPE":"U","NORAD_CAT_ID":55169,"ELEMENT_SET_NO":999,"REV_AT_EPOCH":15775,"BSTAR":-0.00034851,"MEAN_MOTION_DOT":-1.13e-06,"MEAN_MOTION_DDOT":0.0}]