ONEWEB-0598             
1 55154U 23004Q   26089.87977037 -.00000450  00000+0 -13064-2 0  9998
2 55154  87.8901  36.6362 0002474  73.4420 286.6980 13.11417766155634
ONEWEB-0599             
1 55155U 23004R   26089.81065861 -.00000001  00000+0 -36086-4 0  9999
2 55155  87.9180  21.4296 0002034  81.8183 278.3179 13.17649936157164
ONEWEB-0614             
1 55156U 23004S   26089.87467236 -.00000556  00000+0 -16048-2 0  9997
2 55156  87.8897  36.6452 0001638  78.7554 281.3758 13.11415481155577
ONEWEB-0616             
1 55157U 23004T   26089.85284484 -.00000022  00000+0 -90679-4 0  9990
2 55157  87.9180  21.4232 0002541  96.7577 263.3844 13.17650271157382
ONEWEB-0617             
1 55158U 23004U   26089.86281787 -.00000209  00000+0 -62492-3 0  9993
2 55158  87.8907  36.6334 0001490  70.8422 289.2867 13.11414552155591
ONEWEB-0618             
1 55159U 23004V   26089.80561011  .00010800  00000+0  62061-3 0  9997
2 55159  86.9118 209.4145 0011552 214.3931 145.6562 15.12330350170417
ONEWEB-0619             
1 55160U 23004W   26089.88489678  .00000010  00000+0 -65376-5 0  9992
2 55160  87.9192  21.3912 0001553  90.9997 269.1313 13.17651622157282
ONEWEB-0620             
1 55161U 23004X   26089.85773768 -.00000111  00000+0 -34921-3 0  9999
2 55161  87.8898  36.6482 0001945  71.3283 288.8056 13.11414705155566
ONEWEB-0621             
1 55162U 23004Y   26089.88484089 -.00000430  00000+0 -12488-2 0  9995
2 55162  87.8910  36.6247 0001634  80.4293 279.7020 13.11416492155541
ONEWEB-0622             
1 55163U 23004Z   26089.88994241 -.00000276  00000+0 -81426-3 0  9999
2 55163  87.8907  36.6254 0001450  57.2587 302.8681 13.11418114155533
ONEWEB-0623             
1 55164U 23004AA  26089.80389729  .00000023  00000+0  25238-4 0  9999
2 55164  87.9181  21.4469 0001083  75.7442 284.3809 13.17651407157264
ONEWEB-0624             
1 55165U 23004AB  26089.77574673 -.00000147  00000+0 -44180-3 0  9995
2 55165  87.9014   6.1688 0001561  79.0332 281.0973 13.12923308157789
ONEWEB-0625             
1 55166U 23004AC  26089.86970790  .00000001  00000+0 -29803-4 0  9990
2 55166  87.9179  21.4276 0001934  84.4972 275.6381 13.17651319157269
ONEWEB-0626             
1 55167U 23004AD  26089.85960050 -.00000003  00000+0 -41932-4 0  9998
2 55167  87.9179  21.4297 0002186  70.5373 289.5995 13.17648806157266
ONEWEB-0627             
1 55168U 23004AE  26089.84776424 -.00000157  00000+0 -43723-3 0  9997
2 55168  87.9177  21.4319 0001311  76.7871 283.3407 13.17650076157262
ONEWEB-0628             
1 55169U 23004AF  26089.80450254 -.00000113  00000+0 -34851-3 0  9998
2 55169  87.9018   6.2156 0001092  83.5397 276.5855 13.12445106157758
